start=new Date('2023-03-05T00:00:00.000Z').valueOf();
sats=[{"TIME_SYSTEM":"UTC","OBJECT_TYPE":"PAYLOAD","REF_FRAME":"TEME","SEMIMAJOR_AXIS":"6925.268","CENTER_NAME":"EARTH","ELEMENT_SET_NO":"999","BSTAR":"0.00219730000000","OBJECT_ID":"2020-088BD","MEAN_MOTION_DDOT":"0.0000000000000","TLE_LINE1":"1 47173U 20088BD  23063.88305110  .00032622  00000-0  21973-2 0  9999","PERIAPSIS":"546.144","NORAD_CAT_ID":"47173","MEAN_MOTION_DOT":"0.00032622","MEAN_ANOMALY":"275.1408","DECAY_DATE":null,"EPHEMERIS_TYPE":"0","PERIOD":"95.590","RA_OF_ASC_NODE":"203.3302","FILE":"3851350","MEAN_MOTION":"15.06426190","RCS_SIZE":"LARGE","ARG_OF_PERICENTER":"84.9744","APOAPSIS":"548.122","LAUNCH_DATE":"2020-11-25","OBJECT_NAME":"STARLINK-1890","SITE":"AFETR","ECCENTRICITY":"0.00014280","EPOCH":"2023-03-04T21:11:35.615040","GP_ID":"227505318","COUNTRY_CODE":"US","TLE_LINE2":"2 47173  53.0520 203.3302 0001428  84.9744 275.1408 15.06426190125923","REV_AT_EPOCH":"12592","CLASSIFICATION_TYPE":"U","INCLINATION":"53.0520","MEAN_ELEMENT_THEORY":"SGP4"},{"SEMIMAJOR_AXIS":"6925.321","CENTER_NAME":"EARTH","REF_FRAME":"TEME","OBJECT_TYPE":"PAYLOAD","TIME_SYSTEM":"UTC","MEAN_MOTION_DDOT":"0.0000000000000","OBJECT_ID":"2020-088BE","BSTAR":"0.00014883000000","ELEMENT_SET_NO":"999","MEAN_MOTION_DOT":"0.00001937","NORAD_CAT_ID":"47174","PERIAPSIS":"546.442","TLE_LINE1":"1 47174U 20088BE  23063.82776124  .00001937  00000-0  14883-3 0  9999","DECAY_DATE":null,"EPHEMERIS_TYPE":"0","PERIOD":"95.592","MEAN_ANOMALY":"280.6913","RCS_SIZE":"LARGE","ARG_OF_PERICENTER":"79.4197","FILE":"3851350","MEAN_MOTION":"15.06408866","RA_OF_ASC_NODE":"203.5765","LAUNCH_DATE":"2020-11-25","APOAPSIS":"547.931","GP_ID":"227506068","COUNTRY_CODE":"US","ECCENTRICITY":"0.00010750","SITE":"AFETR","EPOCH":"2023-03-04T19:51:58.571136","OBJECT_NAME":"STARLINK-1891","MEAN_ELEMENT_THEORY":"SGP4","INCLINATION":"53.0529","REV_AT_EPOCH":"12591","TLE_LINE2":"2 47174  53.0529 203.5765 0001075  79.4197 280.6913 15.06408866125918","CLASSIFICATION_TYPE":"U"},{"RA_OF_ASC_NODE":"184.1830","MEAN_MOTION":"15.06440699","FILE":"3851350","RCS_SIZE":"LARGE","ARG_OF_PERICENTER":"72.5586","APOAPSIS":"547.874","LAUNCH_DATE":"2020-11-25","OBJECT_NAME":"STARLINK-1895","ECCENTRICITY":"0.00011340","SITE":"AFETR","EPOCH":"2023-03-04T16:38:13.999776","GP_ID":"227506319","COUNTRY_CODE":"US","REV_AT_EPOCH":"12617","TLE_LINE2":"2 47175  53.0524 184.1830 0001134  72.5586 287.5527 15.06440699126179","CLASSIFICATION_TYPE":"U","INCLINATION":"53.0524","MEAN_ELEMENT_THEORY":"SGP4","TIME_SYSTEM":"UTC","OBJECT_TYPE":"PAYLOAD","REF_FRAME":"TEME","SEMIMAJOR_AXIS":"6925.224","CENTER_NAME":"EARTH","ELEMENT_SET_NO":"999","BSTAR":"0.00293140000000","OBJECT_ID":"2020-088BF","MEAN_MOTION_DDOT":"0.0000000000000","TLE_LINE1":"1 47175U 20088BF  23063.69321759  .00043701  00000-0  29314-2 0  9994","PERIAPSIS":"546.304","NORAD_CAT_ID":"47175","MEAN_MOTION_DOT":"0.00043701","MEAN_ANOMALY":"287.5527","EPHEMERIS_TYPE":"0","DECAY_DATE":null,"PERIOD":"95.590"},{"ELEMENT_SET_NO":"999","BSTAR":"0.00155870000000","OBJECT_ID":"2020-088BH","MEAN_MOTION_DDOT":"0.0000000000000","TIME_SYSTEM":"UTC","OBJECT_TYPE":"PAYLOAD","REF_FRAME":"TEME","CENTER_NAME":"EARTH","SEMIMAJOR_AXIS":"6925.293","MEAN_ANOMALY":"279.0437","PERIOD":"95.591","DECAY_DATE":null,"EPHEMERIS_TYPE":"0","TLE_LINE1":"1 47177U 20088BH  23063.87660107  .00023023  00000-0  15587-2 0  9991","PERIAPSIS":"545.952","NORAD_CAT_ID":"47177","MEAN_MOTION_DOT":"0.00023023","APOAPSIS":"548.364","LAUNCH_DATE":"2020-11-25","RA_OF_ASC_NODE":"193.3586","FILE":"3851350","MEAN_MOTION":"15.06418153","ARG_OF_PERICENTER":"81.0749","RCS_SIZE":"LARGE","CLASSIFICATION_TYPE":"U","REV_AT_EPOCH":"12606","TLE_LINE2":"2 47177  53.0517 193.3586 0001741  81.0749 279.0437 15.06418153126067","INCLINATION":"53.0517","MEAN_ELEMENT_THEORY":"SGP4","OBJECT_NAME":"STARLINK-1907","EPOCH":"2023-03-04T21:02:18.332448","ECCENTRICITY":"0.00017410","SITE":"AFETR","COUNTRY_CODE":"US","GP_ID":"227506057"},{"MEAN_ELEMENT_THEORY":"SGP4","REV_AT_EPOCH":"12590","TLE_LINE2":"2 47178  53.0512 203.7447 0001246  86.9644 273.1488 15.06410772125905","CLASSIFICATION_TYPE":"U","INCLINATION":"53.0512","SITE":"AFETR","ECCENTRICITY":"0.00012460","EPOCH":"2023-03-04T18:58:54.433056","GP_ID":"227504820","COUNTRY_CODE":"US","OBJECT_NAME":"STARLINK-1912","APOAPSIS":"548.043","LAUNCH_DATE":"2020-11-25","MEAN_MOTION":"15.06410772","FILE":"3851350","RCS_SIZE":"LARGE","ARG_OF_PERICENTER":"86.9644","RA_OF_ASC_NODE":"203.7447","MEAN_ANOMALY":"273.1488","DECAY_DATE":null,"EPHEMERIS_TYPE":"0","PERIOD":"95.591","MEAN_MOTION_DOT":"0.00041105","TLE_LINE1":"1 47178U 20088BJ  23063.79090779  .00041105  00000-0  27616-2 0  9992","PERIAPSIS":"546.318","NORAD_CAT_ID":"47178","OBJECT_ID":"2020-088BJ","MEAN_MOTION_DDOT":"0.0000000000000","ELEMENT_SET_NO":"999","BSTAR":"0.00276160000000","REF_FRAME":"TEME","SEMIMAJOR_AXIS":"6925.316","CENTER_NAME":"EARTH","TIME_SYSTEM":"UTC","OBJECT_TYPE":"PAYLOAD"},{"RA_OF_ASC_NODE":"213.4993","MEAN_MOTION":"15.06394560","FILE":"3851350","RCS_SIZE":"LARGE","ARG_OF_PERICENTER":"111.9707","APOAPSIS":"547.975","LAUNCH_DATE":"2020-11-25","OBJECT_NAME":"STARLINK-1913","ECCENTRICITY":"0.00010760","SITE":"AFETR","EPOCH":"2023-03-04T20:17:11.172480","GP_ID":"227505569","COUNTRY_CODE":"US","REV_AT_EPOCH":"12577","TLE_LINE2":"2 47179  53.0517 213.4993 0001076 111.9707 248.1397 15.06394560125777","CLASSIFICATION_TYPE":"U","INCLINATION":"53.0517","MEAN_ELEMENT_THEORY":"SGP4","TIME_SYSTEM":"UTC","OBJECT_TYPE":"PAYLOAD","REF_FRAME":"TEME","SEMIMAJOR_AXIS":"6925.365","CENTER_NAME":"EARTH","ELEMENT_SET_NO":"999","BSTAR":"0.00043630000000","OBJECT_ID":"2020-088BK","MEAN_MOTION_DDOT":"0.0000000000000","PERIAPSIS":"546.485","TLE_LINE1":"1 47179U 20088BK  23063.84526820  .00006222  00000-0  43630-3 0  9996","NORAD_CAT_ID":"47179","MEAN_MOTION_DOT":"0.00006222","MEAN_ANOMALY":"248.1397","EPHEMERIS_TYPE":"0","DECAY_DATE":null,"PERIOD":"95.592"},{"TLE_LINE1":"1 47181U 20088BM  23063.62070008  .00070949  00000-0  42833-2 0  9997","PERIAPSIS":"534.337","NORAD_CAT_ID":"47181","MEAN_MOTION_DOT":"0.00070949","MEAN_ANOMALY":"105.7608","DECAY_DATE":null,"EPHEMERIS_TYPE":"0","PERIOD":"95.359","TIME_SYSTEM":"UTC","OBJECT_TYPE":"PAYLOAD","REF_FRAME":"TEME","CENTER_NAME":"EARTH","SEMIMAJOR_AXIS":"6914.103","ELEMENT_SET_NO":"999","BSTAR":"0.00428330000000","OBJECT_ID":"2020-088BM","MEAN_MOTION_DDOT":"0.0000000000000","OBJECT_NAME":"STARLINK-1927","EPOCH":"2023-03-04T14:53:48.486912","SITE":"AFETR","ECCENTRICITY":"0.00023590","COUNTRY_CODE":"US","GP_ID":"227505820","CLASSIFICATION_TYPE":"U","REV_AT_EPOCH":"12616","TLE_LINE2":"2 47181  53.0538 183.8345 0002359 254.3122 105.7608 15.10076703126160","INCLINATION":"53.0538","MEAN_ELEMENT_THEORY":"SGP4","RA_OF_ASC_NODE":"183.8345","FILE":"3851350","MEAN_MOTION":"15.10076703","ARG_OF_PERICENTER":"254.3122","RCS_SIZE":"LARGE","APOAPSIS":"537.599","LAUNCH_DATE":"2020-11-25"},{"REF_FRAME":"TEME","SEMIMAJOR_AXIS":"6925.255","CENTER_NAME":"EARTH","TIME_SYSTEM":"UTC","OBJECT_TYPE":"PAYLOAD","OBJECT_ID":"2021-005B","MEAN_MOTION_DDOT":"0.0000000000000","ELEMENT_SET_NO":"999","BSTAR":"0.00237320000000","MEAN_MOTION_DOT":"0.00035274","TLE_LINE1":"1 47350U 21005B   23062.99473857  .00035274  00000-0  23732-2 0  9992","PERIAPSIS":"546.417","NORAD_CAT_ID":"47350","MEAN_ANOMALY":"274.7882","DECAY_DATE":null,"EPHEMERIS_TYPE":"0","PERIOD":"95.590","FILE":"3851072","MEAN_MOTION":"15.06430488","RCS_SIZE":"LARGE","ARG_OF_PERICENTER":"85.3223","RA_OF_ASC_NODE":"327.3242","APOAPSIS":"547.824","LAUNCH_DATE":"2021-01-20","ECCENTRICITY":"0.00010160","SITE":"AFETR","EPOCH":"2023-03-03T23:52:25.412448","GP_ID":"227473568","COUNTRY_CODE":"US","OBJECT_NAME":"STARLINK-2011","MEAN_ELEMENT_THEORY":"SGP4","REV_AT_EPOCH":"11699","TLE_LINE2":"2 47350  53.0536 327.3242 0001016  85.3223 274.7882 15.06430488116990","CLASSIFICATION_TYPE":"U","INCLINATION":"53.0536"},{"BSTAR":"0.00003589000000","ELEMENT_SET_NO":"999","MEAN_MOTION_DDOT":"0.0000000000000","OBJECT_ID":"2021-005C","OBJECT_TYPE":"PAYLOAD","TIME_SYSTEM":"UTC","CENTER_NAME":"EARTH","SEMIMAJOR_AXIS":"6925.352","REF_FRAME":"TEME","DECAY_DATE":null,"EPHEMERIS_TYPE":"0","PERIOD":"95.592","MEAN_ANOMALY":"276.8545","NORAD_CAT_ID":"47351","TLE_LINE1":"1 47351U 21005C   23063.88580108  .00000253  00000-0  35890-4 0  9999","PERIAPSIS":"546.000","MEAN_MOTION_DOT":"0.00000253","LAUNCH_DATE":"2021-01-20","APOAPSIS":"548.435","RA_OF_ASC_NODE":"283.3139","ARG_OF_PERICENTER":"83.2644","RCS_SIZE":"LARGE","MEAN_MOTION":"15.06398770","FILE":"3851350","INCLINATION":"53.0507","CLASSIFICATION_TYPE":"U","TLE_LINE2":"2 47351  53.0507 283.3139 0001758  83.2644 276.8545 15.06398770117685","REV_AT_EPOCH":"11768","MEAN_ELEMENT_THEORY":"SGP4","OBJECT_NAME":"STARLINK-2017","COUNTRY_CODE":"US","GP_ID":"227508089","EPOCH":"2023-03-04T21:15:33.213312","SITE":"AFETR","ECCENTRICITY":"0.00017580"},{"APOAPSIS":"547.785","LAUNCH_DATE":"2021-01-20","MEAN_MOTION":"15.06435603","FILE":"3851072","ARG_OF_PERICENTER":"89.6854","RCS_SIZE":"LARGE","RA_OF_ASC_NODE":"326.8140","MEAN_ELEMENT_THEORY":"SGP4","CLASSIFICATION_TYPE":"U","TLE_LINE2":"2 47352  53.0538 326.8140 0000983  89.6854 270.4248 15.06435603117000","REV_AT_EPOCH":"11700","INCLINATION":"53.0538","EPOCH":"2023-03-04T02:36:57.757248","ECCENTRICITY":"0.00009830","SITE":"AFETR","COUNTRY_CODE":"US","GP_ID":"227474559","OBJECT_NAME":"STARLINK-2034","OBJECT_ID":"2021-005D","MEAN_MOTION_DDOT":"0.0000000000000","ELEMENT_SET_NO":"999","BSTAR":"0.00100230000000","REF_FRAME":"TEME","CENTER_NAME":"EARTH","SEMIMAJOR_AXIS":"6925.239","TIME_SYSTEM":"UTC","OBJECT_TYPE":"PAYLOAD","MEAN_ANOMALY":"270.4248","EPHEMERIS_TYPE":"0","DECAY_DATE":null,"PERIOD":"95.590","MEAN_MOTION_DOT":"0.00014694","PERIAPSIS":"546.424","TLE_LINE1":"1 47352U 21005D   23063.10900182  .00014694  00000-0  10023-2 0  9996","NORAD_CAT_ID":"47352"}];
